IRIDIUM 33 DEB          
1 34870U 97051MQ  26091.94883832  .00012249  00000+0  16532-2 0  9993
2 34870  86.3051 263.4894 0017008 163.3272 349.0564 14.78918522905386
IRIDIUM 33 DEB          
1 34896U 97051MY  26090.78594715  .00006719  00000+0  11768-2 0  9992
2 34896  86.3229 277.7266 0024791 200.2106 175.3982 14.67488708892189
IRIDIUM 33 DEB          
1 34926U 97051NF  26093.61289112  .00028577  00000+0  57011-2 0  9990
2 34926  86.1325 316.1620 0071394 277.9855 109.4186 14.60196405880862
IRIDIUM 33 DEB          
1 34985U 97051NR  26094.22724218  .00003438  00000+0  10276-2 0  9995
2 34985  86.3753   8.8751 0019603 208.7000 303.7134 14.42595577887966
IRIDIUM 33 DEB          
1 35051U 97051NX  26092.59943334  .00002209  00000+0  58680-3 0  9997
2 35051  86.3233 320.5432 0010446  80.3604 279.8779 14.48208600886000
IRIDIUM 33 DEB          
1 35052U 97051NY  26093.08140777  .00000770  00000+0  24455-3 0  9997
2 35052  86.3328 332.7662 0013631  79.2380 281.0352 14.38657438888766
IRIDIUM 33 DEB          
1 35080U 97051PF  26093.47310782  .00183931  00000+0  10905-1 0  9990
2 35080  86.2143 358.1010 0037434 123.3498 237.1332 15.09938619713598
IRIDIUM 33 DEB          
1 35297U 97051PM  26091.53266843  .00002318  00000+0  64811-3 0  9999
2 35297  86.3911  15.8745 0017070 131.7502 228.5163 14.45718193720122
IRIDIUM 33 DEB          
1 35299U 97051PP  26094.17624355  .00007591  00000+0  22665-2 0  9998
2 35299  86.2902 344.2150 0057675  90.1371  62.8935 14.41909287879504
IRIDIUM 33 DEB          
1 35480U 97051QA  26092.41676618  .00002930  00000+0  74434-3 0  9998
2 35480  86.3587 336.9296 0015801  92.8889 267.4125 14.50400300886350
IRIDIUM 33 DEB          
1 35484U 97051QE  26076.88565231  .00024808  00000+0  15955-2 0  9993
2 35484  86.3497 307.8859 0014655 134.2984 225.9457 15.08193136634458
IRIDIUM 33 DEB          
1 35488U 97051QJ  26093.16798243  .00019813  00000+0  22560-2 0  9998
2 35488  86.3213 249.3667 0025072   8.4925 351.6719 14.85861175899198
IRIDIUM 33 DEB          
1 35616U 97051QN  26093.00123014  .00025368  00000+0  29330-2 0  9996
2 35616  86.3487 294.8311 0009906 138.6050 221.5927 14.85408907892243
IRIDIUM 33 DEB          
1 35618U 97051QQ  26090.32917403  .00001984  00000+0  47527-3 0  9990
2 35618  86.3354 306.0121 0029124  17.4199 342.7999 14.52807968669707
IRIDIUM 33 DEB          
1 35620U 97051QS  26093.17227147  .00014934  00000+0  41718-2 0  9992
2 35620  86.3903 170.3667 0132348 248.6633 110.0398 14.41062770615691
IRIDIUM 33 DEB          
1 35622U 97051QU  26093.61749348  .00075942  00000+0  38411-2 0  9997
2 35622  86.1924 207.8616 0008661 208.3336 214.4164 15.16679750890495
