[{"OBJECT_NAME":"IRIDIUM 33 DEB","OBJECT_ID":"1997-051MQ","EPOCH":"2026-04-01T22:46:19.630848","MEAN_MOTION":14.78918522,"ECCENTRICITY":0.0017008,"INCLINATION":86.3051,"RA_OF_ASC_NODE":263.4894,"ARG_OF_PERICENTER":163.3272,"MEAN_ANOMALY":349.0564,"EPHEMERIS_TYPE":0,"CLASSIFICATION_TYPE":"U","NORAD_CAT_ID":34870,"ELEMENT_SET_NO":999,"REV_AT_EPOCH":90538,"BSTAR":0.0016532,"MEAN_MOTION_DOT":0.00012249,"MEAN_MOTION_DDOT":0},{"OBJECT_NAME":"IRIDIUM 33 DEB","OBJECT_ID":"1997-051MY","EPOCH":"2026-03-31T18:51:45.833760","MEAN_MOTION":14.67488708,"ECCENTRICITY":0.00247912,"INCLINATION":86.3229,"RA_OF_ASC_NODE":277.7266,"ARG_OF_PERICENTER":200.2106,"MEAN_ANOMALY":175.3982,"EPHEMERIS_TYPE":0,"CLASSIFICATION_TYPE":"U","NORAD_CAT_ID":34896,"ELEMENT_SET_NO":999,"REV_AT_EPOCH":89218,"BSTAR":0.0011768344,"MEAN_MOTION_DOT":6.719e-5,"MEAN_MOTION_DDOT":0},{"OBJECT_NAME":"IRIDIUM 33 DEB","OBJECT_ID":"1997-051NF","EPOCH":"2026-04-03T14:42:33.792768","MEAN_MOTION":14.60196405,"ECCENTRICITY":0.0071394,"INCLINATION":86.1325,"RA_OF_ASC_NODE":316.162,"ARG_OF_PERICENTER":277.9855,"MEAN_ANOMALY":109.4186,"EPHEMERIS_TYPE":0,"CLASSIFICATION_TYPE":"U","NORAD_CAT_ID":34926,"ELEMENT_SET_NO":999,"REV_AT_EPOCH":88086,"BSTAR":0.0057011,"MEAN_MOTION_DOT":0.00028577,"MEAN_MOTION_DDOT":0},{"OBJECT_NAME":"IRIDIUM 33 DEB","OBJECT_ID":"1997-051NR","EPOCH":"2026-04-04T05:27:13.724352","MEAN_MOTION":14.42595577,"ECCENTRICITY":0.00196031,"INCLINATION":86.3753,"RA_OF_ASC_NODE":8.8751,"ARG_OF_PERICENTER":208.7,"MEAN_ANOMALY":303.7134,"EPHEMERIS_TYPE":0,"CLASSIFICATION_TYPE":"U","NORAD_CAT_ID":34985,"ELEMENT_SET_NO":999,"REV_AT_EPOCH":88796,"BSTAR":0.00102759,"MEAN_MOTION_DOT":3.438e-5,"MEAN_MOTION_DDOT":0},{"OBJECT_NAME":"IRIDIUM 33 DEB","OBJECT_ID":"1997-051NX","EPOCH":"2026-04-02T14:23:11.040576","MEAN_MOTION":14.482086,"ECCENTRICITY":0.00104461,"INCLINATION":86.3233,"RA_OF_ASC_NODE":320.5432,"ARG_OF_PERICENTER":80.3604,"MEAN_ANOMALY":279.8779,"EPHEMERIS_TYPE":0,"CLASSIFICATION_TYPE":"U","NORAD_CAT_ID":35051,"ELEMENT_SET_NO":999,"REV_AT_EPOCH":88600,"BSTAR":0.00058679848,"MEAN_MOTION_DOT":2.209e-5,"MEAN_MOTION_DDOT":0},{"OBJECT_NAME":"IRIDIUM 33 DEB","OBJECT_ID":"1997-051NY","EPOCH":"2026-04-03T01:57:13.631328","MEAN_MOTION":14.38657438,"ECCENTRICITY":0.00136314,"INCLINATION":86.3328,"RA_OF_ASC_NODE":332.7662,"ARG_OF_PERICENTER":79.238,"MEAN_ANOMALY":281.0352,"EPHEMERIS_TYPE":0,"CLASSIFICATION_TYPE":"U","NORAD_CAT_ID":35052,"ELEMENT_SET_NO":999,"REV_AT_EPOCH":88876,"BSTAR":0.00024454578,"MEAN_MOTION_DOT":7.7e-6,"MEAN_MOTION_DDOT":0},{"OBJECT_NAME":"IRIDIUM 33 DEB","OBJECT_ID":"1997-051PF","EPOCH":"2026-04-03T11:21:16.515648","MEAN_MOTION":15.09938619,"ECCENTRICITY":0.00374345,"INCLINATION":86.2143,"RA_OF_ASC_NODE":358.101,"ARG_OF_PERICENTER":123.3498,"MEAN_ANOMALY":237.1332,"EPHEMERIS_TYPE":0,"CLASSIFICATION_TYPE":"U","NORAD_CAT_ID":35080,"ELEMENT_SET_NO":999,"REV_AT_EPOCH":71359,"BSTAR":0.010904653,"MEAN_MOTION_DOT":0.00183931,"MEAN_MOTION_DDOT":0},{"OBJECT_NAME":"IRIDIUM 33 DEB","OBJECT_ID":"1997-051PM","EPOCH":"2026-04-01T12:47:02.552352","MEAN_MOTION":14.45718193,"ECCENTRICITY":0.001707,"INCLINATION":86.3911,"RA_OF_ASC_NODE":15.8745,"ARG_OF_PERICENTER":131.7502,"MEAN_ANOMALY":228.5163,"EPHEMERIS_TYPE":0,"CLASSIFICATION_TYPE":"U","NORAD_CAT_ID":35297,"ELEMENT_SET_NO":999,"REV_AT_EPOCH":72012,"BSTAR":0.00064810923,"MEAN_MOTION_DOT":2.318e-5,"MEAN_MOTION_DDOT":0},{"OBJECT_NAME":"IRIDIUM 33 DEB","OBJECT_ID":"1997-051PP","EPOCH":"2026-04-04T04:13:47.442720","MEAN_MOTION":14.41909287,"ECCENTRICITY":0.00576754,"INCLINATION":86.2902,"RA_OF_ASC_NODE":344.215,"ARG_OF_PERICENTER":90.1371,"MEAN_ANOMALY":62.8935,"EPHEMERIS_TYPE":0,"CLASSIFICATION_TYPE":"U","NORAD_CAT_ID":35299,"ELEMENT_SET_NO":999,"REV_AT_EPOCH":87950,"BSTAR":0.002266504,"MEAN_MOTION_DOT":7.591e-5,"MEAN_MOTION_DDOT":0},{"OBJECT_NAME":"IRIDIUM 33 DEB","OBJECT_ID":"1997-051QA","EPOCH":"2026-04-02T10:00:08.597952","MEAN_MOTION":14.504003,"ECCENTRICITY":0.00158011,"INCLINATION":86.3587,"RA_OF_ASC_NODE":336.9296,"ARG_OF_PERICENTER":92.8889,"MEAN_ANOMALY":267.4125,"EPHEMERIS_TYPE":0,"CLASSIFICATION_TYPE":"U","NORAD_CAT_ID":35480,"ELEMENT_SET_NO":999,"REV_AT_EPOCH":88635,"BSTAR":0.00074434032,"MEAN_MOTION_DOT":2.93e-5,"MEAN_MOTION_DDOT":0},{"OBJECT_NAME":"IRIDIUM 33 DEB","OBJECT_ID":"1997-051QE","EPOCH":"2026-03-17T21:15:20.359584","MEAN_MOTION":15.08193136,"ECCENTRICITY":0.00146559,"INCLINATION":86.3497,"RA_OF_ASC_NODE":307.8859,"ARG_OF_PERICENTER":134.2984,"MEAN_ANOMALY":225.9457,"EPHEMERIS_TYPE":0,"CLASSIFICATION_TYPE":"U","NORAD_CAT_ID":35484,"ELEMENT_SET_NO":999,"REV_AT_EPOCH":63445,"BSTAR":0.0015955373,"MEAN_MOTION_DOT":0.00024808,"MEAN_MOTION_DDOT":0},{"OBJECT_NAME":"IRIDIUM 33 DEB","OBJECT_ID":"1997-051QJ","EPOCH":"2026-04-03T04:01:53.681952","MEAN_MOTION":14.85861175,"ECCENTRICITY":0.00250723,"INCLINATION":86.3213,"RA_OF_ASC_NODE":249.3667,"ARG_OF_PERICENTER":8.4925,"MEAN_ANOMALY":351.6719,"EPHEMERIS_TYPE":0,"CLASSIFICATION_TYPE":"U","NORAD_CAT_ID":35488,"ELEMENT_SET_NO":999,"REV_AT_EPOCH":89919,"BSTAR":0.0022559725,"MEAN_MOTION_DOT":0.00019813,"MEAN_MOTION_DDOT":0},{"OBJECT_NAME":"IRIDIUM 33 DEB","OBJECT_ID":"1997-051QN","EPOCH":"2026-04-03T00:01:46.284096","MEAN_MOTION":14.85408907,"ECCENTRICITY":0.00099063,"INCLINATION":86.3487,"RA_OF_ASC_NODE":294.8311,"ARG_OF_PERICENTER":138.605,"MEAN_ANOMALY":221.5927,"EPHEMERIS_TYPE":0,"CLASSIFICATION_TYPE":"U","NORAD_CAT_ID":35616,"ELEMENT_SET_NO":999,"REV_AT_EPOCH":89224,"BSTAR":0.0029329909,"MEAN_MOTION_DOT":0.00025368,"MEAN_MOTION_DDOT":0},{"OBJECT_NAME":"IRIDIUM 33 DEB","OBJECT_ID":"1997-051QQ","EPOCH":"2026-03-31T07:54:00.636192","MEAN_MOTION":14.52807968,"ECCENTRICITY":0.00291244,"INCLINATION":86.3354,"RA_OF_ASC_NODE":306.0121,"ARG_OF_PERICENTER":17.4199,"MEAN_ANOMALY":342.7999,"EPHEMERIS_TYPE":0,"CLASSIFICATION_TYPE":"U","NORAD_CAT_ID":35618,"ELEMENT_SET_NO":999,"REV_AT_EPOCH":66970,"BSTAR":0.00047526573,"MEAN_MOTION_DOT":1.984e-5,"MEAN_MOTION_DDOT":0},{"OBJECT_NAME":"IRIDIUM 33 DEB","OBJECT_ID":"1997-051QS","EPOCH":"2026-04-03T04:08:04.255008","MEAN_MOTION":14.4106277,"ECCENTRICITY":0.01323485,"INCLINATION":86.3903,"RA_OF_ASC_NODE":170.3667,"ARG_OF_PERICENTER":248.6633,"MEAN_ANOMALY":110.0398,"EPHEMERIS_TYPE":0,"CLASSIFICATION_TYPE":"U","NORAD_CAT_ID":35620,"ELEMENT_SET_NO":999,"REV_AT_EPOCH":61569,"BSTAR":0.0041718171,"MEAN_MOTION_DOT":0.00014934,"MEAN_MOTION_DDOT":0},{"OBJECT_NAME":"IRIDIUM 33 DEB","OBJECT_ID":"1997-051QU","EPOCH":"2026-04-03T14:49:11.436672","MEAN_MOTION":15.1667975,"ECCENTRICITY":0.0008661,"INCLINATION":86.1924,"RA_OF_ASC_NODE":207.8616,"ARG_OF_PERICENTER":208.3336,"MEAN_ANOMALY":214.4164,"EPHEMERIS_TYPE":0,"CLASSIFICATION_TYPE":"U","NORAD_CAT_ID":35622,"ELEMENT_SET_NO":999,"REV_AT_EPOCH":89049,"BSTAR":0.0038411,"MEAN_MOTION_DOT":0.00075942,"MEAN_MOTION_DDOT":0}]
